COSMOS 2581             
1 62902U 25026A   25065.77599929  .00003355  00000+0  31945-3 0  9999
2 62902  81.9984 190.7402 0011543 157.4069 202.7660 14.93111994  4424
COSMOS 2582             
1 62903U 25026B   25065.77598922  .00002375  00000+0  22538-3 0  9991
2 62903  81.9985 190.7403 0011461 157.5929 202.5793 14.93124158  4412
COSMOS 2583             
1 62904U 25026C   25065.77608984  .00004337  00000+0  41100-3 0  9998
2 62904  81.9973 190.7370 0014228 167.3286 192.8293 14.93326950  4401
VOLGA R/B               
1 62905U 25026D   25036.49449979  .00070488  00000+0  65653-2 0  9991
2 62905  81.9945 220.5351 0010097 276.0393  83.9657 14.93887108    35
SL-4 R/B                
1 62906U 25026E   25065.71929097  .00633571 -92401-6  69427-3 0  9999
2 62906  81.9940 187.0517 0171000 323.9589  35.0243 15.86886733  4616
STARLINK-11552 [DTC]    
1 62907U 25027A   25065.65685451 -.00002735  00000+0 -12852-4 0  9998
2 62907  43.0063  47.5322 0002609 256.9646 103.0933 15.77845657  5290
STARLINK-11561 [DTC]    
1 62908U 25027B   25065.33546810 -.00003763  00000+0 -18746-4 0  9999
2 62908  43.0004  49.4180 0002608 261.7302  98.3273 15.77864532  5208
STARLINK-11567 [DTC]    
1 62909U 25027C   25065.64221056 -.00011254  00000+0 -61969-4 0  9995
2 62909  42.9988  47.4119 0001805 275.4968  84.5696 15.77825146  5255
STARLINK-11569 [DTC]    
1 62910U 25027D   25065.64709210  .00001851  00000+0  13497-4 0  9993
2 62910  42.9987  47.4529 0001143 275.8112  84.2628 15.77859902  5250
STARLINK-11537 [DTC]    
1 62911U 25027E   25065.63732909  .00001702  00000+0  12641-4 0  9999
2 62911  43.0000  47.3769 0001899 273.7717  86.2936 15.77864300  5296
STARLINK-11565 [DTC]    
1 62912U 25027F   25065.31596081 -.00009245  00000+0 -50374-4 0  9991
2 62912  43.0021  49.2651 0001633 262.4127  97.6557 15.77830017  5201
STARLINK-11564 [DTC]    
1 62913U 25027G   25065.31107853  .00003774  00000+0  24544-4 0  9996
2 62913  43.0013  49.2241 0001941 269.6736  90.3911 15.77857547  5206
STARLINK-11566 [DTC]    
1 62914U 25027H   25065.30620039  .00003615  00000+0  23639-4 0  9990
2 62914  42.9989  49.1834 0001737 241.3247 118.7449 15.77848003  5243
STARLINK-11555 [DTC]    
1 62915U 25027J   25065.42792829  .00002092  00000+0  14885-4 0  9992
2 62915  42.9963  48.3754 0000888  53.6896 306.4056 15.77848667  5266
STARLINK-11430 [DTC]    
1 62916U 25027K   25065.29644210  .00019733  00000+0  11602-3 0  9991
2 62916  43.0012  49.1062 0001430 280.5447  79.5262 15.77851229  5245
STARLINK-11560 [DTC]    
1 62917U 25027L   25065.75003472 -.00008523  00000+0 -46142-4 0  9997
2 62917  43.0005  46.2729 0001506 258.9128 188.6102 15.77863108  5294
STARLINK-11562 [DTC]    
1 62918U 25027M   25065.75003472 -.00029710  00000+0 -16833-3 0  9992
2 62918  43.0004  46.2035 0001725 258.2423 217.0345 15.77871364  5343
STARLINK-11457 [DTC]    
1 62919U 25027N   25065.75003472 -.00029654  00000+0 -16798-3 0  9990
2 62919  43.0007  46.1338 0001446 277.6974 225.3219 15.77876010  5297
STARLINK-32921          
1 62920U 25027P   25065.75003472 -.00063696  00000+0 -15288-2 0  9998
2 62920  43.0009  49.1121 0001662 256.6810 120.1568 15.40728399  5307
STARLINK-32917          
1 62921U 25027Q   25065.75003472 -.00001051  00000+0 -12931-4 0  9990
2 62921  43.0008  48.9507 0001550 262.7142 180.5397 15.48960948  5300
STARLINK-32916          
1 62922U 25027R   25065.75003472 -.00023159  00000+0 -41304-3 0  9999
2 62922  43.0008  48.9458 0001553 265.2146 179.9537 15.48973319  5305
STARLINK-32905          
1 62923U 25027S   25065.75003472 -.01523414  00000+0 -32967-1 0  9993
2 62923  43.0009  48.9481 0001405 264.0035 180.1556 15.46678923  5309
STARLINK-32871          
1 62924U 25027T   25065.75003472  .00014587  00000+0  26891-3 0  9998
2 62924  43.0007  48.9362 0001611 258.9900 190.0126 15.48954969  5298
STARLINK-32920          
1 62925U 25027U   25065.75003472 -.00001359  00000+0 -18498-4 0  9999
2 62925  43.0008  48.9213 0001544 263.0297 191.7290 15.48959765  5307
STARLINK-32922          
1 62926U 25027V   25065.75003472 -.00014192  00000+0 -25055-3 0  9995
2 62926  43.0008  48.9311 0001541 264.7387 186.1888 15.48965966  5303
STARLINK-32891          
1 62927U 25027W   25065.75003472 -.00019995  00000+0 -35570-3 0  9995
2 62927  43.0007  48.9266 0001575 263.6643 189.1790 15.48967801  5307
ELECTRON KICK STAGE R/B 
1 62928U 25028A   25065.68350718  .00003935  00000+0  44970-3 0  9996
2 62928  97.9530 121.5259 0041027 304.9880  54.7486 14.86024566  3833
KINEIS-2C               
1 62929U 25028B   25065.72155186  .00002624  00000+0  38864-3 0  9993
2 62929  97.9526 121.1545 0000259  60.6815 299.4420 14.75974276  3813
KINEIS-2D               
1 62930U 25028C   25065.71995606  .00000105  00000+0  22483-4 0  9996
2 62930  97.9527 121.1561 0000183 180.8541 179.2669 14.76041876  3813
KINEIS-2E               
1 62931U 25028D   25065.58284098  .00002518  00000+0  37168-3 0  9993
2 62931  97.9523 121.0253 0001137 118.2862 241.8462 14.76144947  3795
KINEIS-2A               
1 62932U 25028E   25065.64533344 -.00000001  00000+0  70938-5 0  9992
2 62932  97.9529 121.0986 0001939 191.9514 168.1650 14.76423158  3791
KINEIS-2B               
1 62934U 25028G   25065.57564845  .00002523  00000+0  36871-3 0  9992
2 62934  97.9530 121.0343 0002144 168.1998 191.9262 14.76578092  3783
STARLINK-32728          
1 62948U 25029A   25065.75003472 -.01476347  00000+0 -26921-1 0  9997
2 62948  53.1589 145.4930 0001259  69.2056  91.5568 15.52131475  4814
STARLINK-32857          
1 62949U 25029B   25065.75003472 -.01475716  00000+0 -26907-1 0  9991
2 62949  53.1588 145.4897 0001423  69.6249  93.0545 15.52131099  4978
STARLINK-32850          
1 62950U 25029C   25065.75003472 -.01478537  00000+0 -26964-1 0  9990
2 62950  53.1589 145.4856 0001224  70.7249  93.8696 15.52133614  4978
STARLINK-32875          
1 62951U 25029D   25065.75003472 -.01475202  00000+0 -26897-1 0  9992
2 62951  53.1589 145.4782 0001443  72.2996  96.1311 15.52130383  4976
STARLINK-32865          
1 62952U 25029E   25065.75003472 -.01474472  00000+0 -26884-1 0  9997
2 62952  53.1589 145.4815 0001318  70.7124  95.8019 15.52129587  4976
STARLINK-32884          
1 62953U 25029F   25065.75003472 -.01478003  00000+0 -26952-1 0  9998
2 62953  53.1589 145.4740 0001403  71.1133  99.2323 15.52133075  4977
STARLINK-32874          
1 62954U 25029G   25065.75003472 -.01475467  00000+0 -26904-1 0  9997
2 62954  53.1589 145.4694 0001244  70.1382 102.1259 15.52130598  4973
STARLINK-32880          
1 62955U 25029H   25065.75003472 -.01477620  00000+0 -26946-1 0  9997
2 62955  53.1589 145.4657 0001238  70.0376 104.1415 15.52132715  4977
STARLINK-32815          
1 62956U 25029J   25065.75003472 -.01475050  00000+0 -26895-1 0  9996
2 62956  53.1588 145.4615 0001348  72.0337 104.0645 15.52130131  4976
STARLINK-32879          
1 62957U 25029K   25065.75003472 -.01476159  00000+0 -26917-1 0  9993
2 62957  53.1589 145.4582 0001305  71.4463 106.5684 15.52131217  4973
STARLINK-32885          
1 62958U 25029L   25065.75003472 -.01474948  00000+0 -26893-1 0  9991
2 62958  53.1589 145.4536 0001341  72.1930 107.7387 15.52130119  4973
STARLINK-32896          
1 62959U 25029M   25065.75003472 -.01477312  00000+0 -26939-1 0  9991
2 62959  53.1589 145.4501 0001370  71.8062 110.0414 15.52132235  4979
STARLINK-32877          
1 62960U 25029N   25065.75003472 -.01478224  00000+0 -26957-1 0  9996
2 62960  53.1589 145.4465 0001360  73.2452 110.5189 15.52132977  4920
STARLINK-32889          
1 62961U 25029P   25065.75003472 -.01477822  00000+0 -26949-1 0  9991
2 62961  53.1588 145.4426 0001390  74.5019 111.1796 15.52132472  4979
STARLINK-32858          
1 62962U 25029Q   25065.75003472 -.01476159  00000+0 -26917-1 0  9999
2 62962  53.1588 145.4279 0001313  73.2326 120.1164 15.52131149  4865
STARLINK-32882          
1 62963U 25029R   25065.75003472 -.01475519  00000+0 -26905-1 0  9996
2 62963  53.1588 145.4381 0001254  72.3213 115.2775 15.52130584  4976
STARLINK-32887          
1 62964U 25029S   25065.75003472 -.01479652  00000+0 -26985-1 0  9997
2 62964  53.1589 145.4306 0001364  75.3645 116.0665 15.52134174  4975
STARLINK-32836          
1 62965U 25029T   25065.75003472 -.01476003  00000+0 -26914-1 0  9997
2 62965  53.1589 145.4342 0001310  72.6781 116.8374 15.52130980  4974
STARLINK-32888          
1 62966U 25029U   25065.75003472 -.01477001  00000+0 -26933-1 0  9998
2 62966  53.1589 145.4232 0001385  74.0760 121.1901 15.52131720  4976
STARLINK-32897          
1 62967U 25029V   25065.75003472 -.01475425  00000+0 -26903-1 0  9994
2 62967  53.1588 145.4189 0001276  72.7803 124.4028 15.52130461  4976
STARLINK-32863          
1 62968U 25029W   25065.75003472 -.01476012  00000+0 -26914-1 0  9990
2 62968  53.1588 145.4150 0001368  74.3539 124.7468 15.52130627  4921
STARLINK-32894          
1 62969U 25029X   25065.75003472 -.01475332  00000+0 -26901-1 0  9991
2 62969  53.1588 145.4106 0001298  73.8377 127.1792 15.52130352  4976
STARLINK-32826          
1 62970U 25029Y   25065.75003472 -.01476071  00000+0 -26916-1 0  9990
2 62970  53.1588 145.4067 0001231  73.4545 129.4787 15.52131073  4974
2025-030A               
1 62971U 25030A   25065.73802321  .00000142  00000+0  17558-3 0  9994
2 62971  50.0009 138.0985 0007981 338.6673  21.3899 14.06947131  3287
2025-030B               
1 62972U 25030B   25065.74074131  .00000127  00000+0  16721-3 0  9990
2 62972  50.0024 138.1173 0008731 336.0159  24.0339 14.06754530  3288
2025-030C               
1 62973U 25030C   25065.73670605  .00000130  00000+0  16880-3 0  9998
2 62973  50.0028 138.0966 0006428 335.0946  24.9649 14.06765956  3283
2025-030D               
1 62974U 25030D   25065.73360518  .00000141  00000+0  17435-3 0  9997
2 62974  50.0034 138.0812 0007907 345.9726  14.0959 14.07213342  3282
2025-030E               
1 62975U 25030E   25065.73551893  .00000132  00000+0  17006-3 0  9990
2 62975  50.0030 138.0903 0006216 334.3795  25.6802 14.06762224  3282
